[{"OBJECT_NAME":"STARLINK-31158","OBJECT_ID":"2024-019B","EPOCH":"2026-03-09T21:12:33.105600","MEAN_MOTION":15.27541907,"ECCENTRICITY":0.00012274,"INCLINATION":43.0035,"RA_OF_ASC_NODE":247.6901,"ARG_OF_PERICENTER":275.2853,"MEAN_ANOMALY":84.7859,"EPHEMERIS_TYPE":0,"CLASSIFICATION_TYPE":"U","NORAD_CAT_ID":58854,"ELEMENT_SET_NO":999,"REV_AT_EPOCH":11911,"BSTAR":-0.00012830455,"MEAN_MOTION_DOT":-3.787e-5,"MEAN_MOTION_DDOT":0},{"OBJECT_NAME":"PUCP-SAT 1","OBJECT_ID":"2013-066AC","EPOCH":"2026-03-09T22:02:13.763904","MEAN_MOTION":15.29426022,"ECCENTRICITY":0.00136836,"INCLINATION":97.5787,"RA_OF_ASC_NODE":61.0032,"ARG_OF_PERICENTER":300.1183,"MEAN_ANOMALY":59.87,"EPHEMERIS_TYPE":0,"CLASSIFICATION_TYPE":"U","NORAD_CAT_ID":39442,"ELEMENT_SET_NO":999,"REV_AT_EPOCH":66907,"BSTAR":0.00088755185,"MEAN_MOTION_DOT":0.00025373,"MEAN_MOTION_DDOT":0}]
